{"type": "FeatureCollection", "features": [ {"type": "Feature", "properties": {"norad_id": 36011, "name": "IRIDIUM 33 DEB", "group": "iridium-33-debris", "lat": 25.657029385946277, "lon": -144.81658480271443, "alt_km": 750.0560596656369, "timestamp": "2025-12-09T04:51:47.877359+00:00", "meta": {"OBJECT_NAME": "IRIDIUM 33 DEB", "OBJECT_ID": "1997-051US", "EPOCH": "2025-12-08T10:05:26.079072", "MEAN_MOTION": 14.41310203, "ECCENTRICITY": 0.00172479, "INCLINATION": 86.3414, "RA_OF_ASC_NODE": 37.2804, "ARG_OF_PERICENTER": 231.0749, "MEAN_ANOMALY": 187.2759, "EPHEMERIS_TYPE": 0, "CLASSIFICATION_TYPE": "U", "NORAD_CAT_ID": 36011, "ELEMENT_SET_NO": 999, "REV_AT_EPOCH": 64478, "BSTAR": 0.00083412768, "MEAN_MOTION_DOT": 2.72e-05, "MEAN_MOTION_DDOT": 0}, "tle": {"line1": "1 36011U 97051US  25342.42044073  .00002720  00000+0  83413-3 0  9995", "line2": "2 36011  86.3414  37.2804 0017247 231.0749 187.2759 14.41310203644787"}}, "geometry": {"type": "Point", "coordinates": [-144.81658480271443, 25.657029385946277]}}, {"type": "Feature", "properties": {"norad_id": 36012, "name": "IRIDIUM 33 DEB", "group": "iridium-33-debris", "lat": 6.4380223777017465, "lon": -50.63686916901246, "alt_km": 833.3508198170775, "timestamp": "2025-12-09T04:51:47.877370+00:00", "meta": {"OBJECT_NAME": "IRIDIUM 33 DEB", "OBJECT_ID": "1997-051UT", "EPOCH": "2025-12-08T15:17:32.042688", "MEAN_MOTION": 14.18803085, "ECCENTRICITY": 0.021266, "INCLINATION": 86.445, "RA_OF_ASC_NODE": 309.1888, "ARG_OF_PERICENTER": 276.4407, "MEAN_ANOMALY": 81.2606, "EPHEMERIS_TYPE": 0, "CLASSIFICATION_TYPE": "U", "NORAD_CAT_ID": 36012, "ELEMENT_SET_NO": 999, "REV_AT_EPOCH": 65426, "BSTAR": 0.010465, "MEAN_MOTION_DOT": 0.00027331, "MEAN_MOTION_DDOT": 0}, "tle": {"line1": "1 36012U 97051UT  25342.63717642  .00027331  00000+0  10465-1 0  9998", "line2": "2 36012  86.4450 309.1888 0212660 276.4407  81.2606 14.18803085654269"}}, "geometry": {"type": "Point", "coordinates": [-50.63686916901246, 6.4380223777017465]}}, {"type": "Feature", "properties": {"norad_id": 36028, "name": "IRIDIUM 33 DEB", "group": "iridium-33-debris", "lat": -17.55193834372458, "lon": 129.52672245621318, "alt_km": 598.033531313321, "timestamp": "2025-12-09T04:51:47.877380+00:00", "meta": {"OBJECT_NAME": "IRIDIUM 33 DEB", "OBJECT_ID": "1997-051VK", "EPOCH": "2025-12-08T15:07:59.293632", "MEAN_MOTION": 14.94981488, "ECCENTRICITY": 0.002202, "INCLINATION": 86.3217, "RA_OF_ASC_NODE": 308.6297, "ARG_OF_PERICENTER": 65.6052, "MEAN_ANOMALY": 294.7472, "EPHEMERIS_TYPE": 0, "CLASSIFICATION_TYPE": "U", "NORAD_CAT_ID": 36028, "ELEMENT_SET_NO": 999, "REV_AT_EPOCH": 87063, "BSTAR": 0.0029712, "MEAN_MOTION_DOT": 0.00032753, "MEAN_MOTION_DDOT": 0}, "tle": {"line1": "1 36028U 97051VK  25342.63054738  .00032753  00000+0  29712-2 0  9995", "line2": "2 36028  86.3217 308.6297 0022020  65.6052 294.7472 14.94981488870638"}}, "geometry": {"type": "Point", "coordinates": [129.52672245621318, -17.55193834372458]}}, {"type": "Feature", "properties": {"norad_id": 36080, "name": "IRIDIUM 33 DEB", "group": "iridium-33-debris", "lat": -46.838969005556564, "lon": 5.592545064830569, "alt_km": 753.9994465885675, "timestamp": "2025-12-09T04:51:47.877390+00:00", "meta": {"OBJECT_NAME": "IRIDIUM 33 DEB", "OBJECT_ID": "1997-051VM", "EPOCH": "2025-12-07T08:15:24.109920", "MEAN_MOTION": 14.46571942, "ECCENTRICITY": 0.00176312, "INCLINATION": 86.3198, "RA_OF_ASC_NODE": 10.3374, "ARG_OF_PERICENTER": 174.0737, "MEAN_ANOMALY": 186.0678, "EPHEMERIS_TYPE": 0, "CLASSIFICATION_TYPE": "U", "NORAD_CAT_ID": 36080, "ELEMENT_SET_NO": 999, "REV_AT_EPOCH": 47336, "BSTAR": 0.0010977788, "MEAN_MOTION_DOT": 3.982e-05, "MEAN_MOTION_DDOT": 0}, "tle": {"line1": "1 36080U 97051VM  25341.34402905  .00003982  00000+0  10978-2 0  9999", "line2": "2 36080  86.3198  10.3374 0017631 174.0737 186.0678 14.46571942473361"}}, "geometry": {"type": "Point", "coordinates": [5.592545064830569, -46.838969005556564]}}, {"type": "Feature", "properties": {"norad_id": 36083, "name": "IRIDIUM 33 DEB", "group": "iridium-33-debris", "lat": 85.90283356359626, "lon": 98.87135608014833, "alt_km": 755.4042265589824, "timestamp": "2025-12-09T04:51:47.877400+00:00", "meta": {"OBJECT_NAME": "IRIDIUM 33 DEB", "OBJECT_ID": "1997-051VQ", "EPOCH": "2025-12-06T21:32:26.892672", "MEAN_MOTION": 14.43175138, "ECCENTRICITY": 0.00247889, "INCLINATION": 86.3442, "RA_OF_ASC_NODE": 36.6683, "ARG_OF_PERICENTER": 243.3344, "MEAN_ANOMALY": 116.5319, "EPHEMERIS_TYPE": 0, "CLASSIFICATION_TYPE": "U", "NORAD_CAT_ID": 36083, "ELEMENT_SET_NO": 999, "REV_AT_EPOCH": 85365, "BSTAR": 0.00098432537, "MEAN_MOTION_DOT": 3.337e-05, "MEAN_MOTION_DDOT": 0}, "tle": {"line1": "1 36083U 97051VQ  25340.89753348  .00003337  00000+0  98433-3 0  9998", "line2": "2 36083  86.3442  36.6683 0024788 243.3344 116.5319 14.43175138853653"}}, "geometry": {"type": "Point", "coordinates": [98.87135608014833, 85.90283356359626]}}, {"type": "Feature", "properties": {"norad_id": 36390, "name": "IRIDIUM 33 DEB", "group": "iridium-33-debris", "lat": -60.778255478940196, "lon": 127.67206805927857, "alt_km": 648.857835007153, "timestamp": "2025-12-09T04:51:47.877410+00:00", "meta": {"OBJECT_NAME": "IRIDIUM 33 DEB", "OBJECT_ID": "1997-051VU", "EPOCH": "2025-12-08T14:44:10.068288", "MEAN_MOTION": 14.7351876, "ECCENTRICITY": 0.0029895, "INCLINATION": 86.2903, "RA_OF_ASC_NODE": 301.2813, "ARG_OF_PERICENTER": 175.8211, "MEAN_ANOMALY": 184.3262, "EPHEMERIS_TYPE": 0, "CLASSIFICATION_TYPE": "U", "NORAD_CAT_ID": 36390, "ELEMENT_SET_NO": 999, "REV_AT_EPOCH": 66201, "BSTAR": 0.0016262, "MEAN_MOTION_DOT": 0.00010673, "MEAN_MOTION_DDOT": 0}, "tle": {"line1": "1 36390U 97051VU  25342.61400542  .00010673  00000+0  16262-2 0  9996", "line2": "2 36390  86.2903 301.2813 0029895 175.8211 184.3262 14.73518760662010"}}, "geometry": {"type": "Point", "coordinates": [127.67206805927857, -60.778255478940196]}}, {"type": "Feature", "properties": {"norad_id": 36483, "name": "IRIDIUM 33 DEB", "group": "iridium-33-debris", "lat": -38.93359223412689, "lon": -123.0646917747062, "alt_km": 745.0899777432196, "timestamp": "2025-12-09T04:51:47.877420+00:00", "meta": {"OBJECT_NAME": "IRIDIUM 33 DEB", "OBJECT_ID": "1997-051VZ", "EPOCH": "2025-12-08T11:14:38.908896", "MEAN_MOTION": 14.45787314, "ECCENTRICITY": 0.00108756, "INCLINATION": 86.3794, "RA_OF_ASC_NODE": 54.3174, "ARG_OF_PERICENTER": 137.8715, "MEAN_ANOMALY": 222.3325, "EPHEMERIS_TYPE": 0, "CLASSIFICATION_TYPE": "U", "NORAD_CAT_ID": 36483, "ELEMENT_SET_NO": 999, "REV_AT_EPOCH": 65084, "BSTAR": 0.00090663472, "MEAN_MOTION_DOT": 3.235e-05, "MEAN_MOTION_DDOT": 0}, "tle": {"line1": "1 36483U 97051VZ  25342.46850589  .00003235  00000+0  90663-3 0  9996", "line2": "2 36483  86.3794  54.3174 0010875 137.8715 222.3325 14.45787314650846"}}, "geometry": {"type": "Point", "coordinates": [-123.0646917747062, -38.93359223412689]}}, {"type": "Feature", "properties": {"norad_id": 36490, "name": "IRIDIUM 33 DEB", "group": "iridium-33-debris", "lat": 86.36227145859529, "lon": 103.25926075521775, "alt_km": 630.382594597334, "timestamp": "2025-12-09T04:51:47.877431+00:00", "meta": {"OBJECT_NAME": "IRIDIUM 33 DEB", "OBJECT_ID": "1997-051WG", "EPOCH": "2025-12-08T12:11:12.801984", "MEAN_MOTION": 14.76053442, "ECCENTRICITY": 0.00055405, "INCLINATION": 86.3655, "RA_OF_ASC_NODE": 12.3717, "ARG_OF_PERICENTER": 92.4911, "MEAN_ANOMALY": 267.6943, "EPHEMERIS_TYPE": 0, "CLASSIFICATION_TYPE": "U", "NORAD_CAT_ID": 36490, "ELEMENT_SET_NO": 999, "REV_AT_EPOCH": 86422, "BSTAR": 0.0019791123, "MEAN_MOTION_DOT": 0.0001368, "MEAN_MOTION_DDOT": 0}, "tle": {"line1": "1 36490U 97051WG  25342.50778706  .00013680  00000+0  19791-2 0  9996", "line2": "2 36490  86.3655  12.3717 0005540  92.4911 267.6943 14.76053442864223"}}, "geometry": {"type": "Point", "coordinates": [103.25926075521775, 86.36227145859529]}}, {"type": "Feature", "properties": {"norad_id": 36493, "name": "IRIDIUM 33 DEB", "group": "iridium-33-debris", "lat": 27.94407244149661, "lon": -168.68554242151495, "alt_km": 680.7828330383245, "timestamp": "2025-12-09T04:51:47.877452+00:00", "meta": {"OBJECT_NAME": "IRIDIUM 33 DEB", "OBJECT_ID": "1997-051WK", "EPOCH": "2025-12-08T19:58:38.259264", "MEAN_MOTION": 14.65158506, "ECCENTRICITY": 0.0010691, "INCLINATION": 86.3572, "RA_OF_ASC_NODE": 13.4155, "ARG_OF_PERICENTER": 18.0895, "MEAN_ANOMALY": 342.0696, "EPHEMERIS_TYPE": 0, "CLASSIFICATION_TYPE": "U", "NORAD_CAT_ID": 36493, "ELEMENT_SET_NO": 999, "REV_AT_EPOCH": 74461, "BSTAR": 0.0020019, "MEAN_MOTION_DOT": 0.00010799, "MEAN_MOTION_DDOT": 0}, "tle": {"line1": "1 36493U 97051WK  25342.83238726  .00010799  00000+0  20019-2 0  9991", "line2": "2 36493  86.3572  13.4155 0010691  18.0895 342.0696 14.65158506744618"}}, "geometry": {"type": "Point", "coordinates": [-168.68554242151495, 27.94407244149661]}}, {"type": "Feature", "properties": {"norad_id": 37548, "name": "IRIDIUM 33 DEB", "group": "iridium-33-debris", "lat": 24.580488458678108, "lon": -136.7637668347292, "alt_km": 709.1215936316448, "timestamp": "2025-12-09T04:51:47.877464+00:00", "meta": {"OBJECT_NAME": "IRIDIUM 33 DEB", "OBJECT_ID": "1997-051XH", "EPOCH": "2025-11-29T22:23:36.250944", "MEAN_MOTION": 14.5113469, "ECCENTRICITY": 0.00243457, "INCLINATION": 86.3524, "RA_OF_ASC_NODE": 48.9393, "ARG_OF_PERICENTER": 232.6782, "MEAN_ANOMALY": 127.2204, "EPHEMERIS_TYPE": 0, "CLASSIFICATION_TYPE": "U", "NORAD_CAT_ID": 37548, "ELEMENT_SET_NO": 999, "REV_AT_EPOCH": 65346, "BSTAR": 0.0012745087, "MEAN_MOTION_DOT": 5.093e-05, "MEAN_MOTION_DDOT": 0}, "tle": {"line1": "1 37548U 97051XH  25333.93305846  .00005093  00000+0  12745-2 0  9990", "line2": "2 37548  86.3524  48.9393 0024345 232.6782 127.2204 14.51134690653467"}}, "geometry": {"type": "Point", "coordinates": [-136.7637668347292, 24.580488458678108]}}]}